CTC2_L_00411016-03
1 60086U 22715LF  26037.47795139  .00000000  00000+0  00000-0 0  9999
2 60086  65.0000 180.0000 0000000   0.0000   0.0000 12.65579224    16
CTC2_L_00411016-04
1 60087U 23002ZZ  26037.47795139  .00000000  00000+0  00000-0 0  9990
2 60087  65.0000 180.0000 0000000   0.0000  90.0000 12.65579224    16
CTC2_L_00411017-01
1 60088U 26851LJ  26037.47795139  .00000000  00000+0  00000-0 0  9996
2 60088  65.0000 192.0000 0000000   0.0000 192.0000 12.65579224    13
CTC2_L_00411017-02
1 60089U 22227NA  26037.47795139  .00000000  00000+0  00000-0 0  9990
2 60089  65.0000 192.0000 0000000   0.0000 282.0000 12.65579224    14
CTC2_L_00411017-03
1 60090U 26938OF  26037.47795139  .00000000  00000+0  00000-0 0  9995
2 60090  65.0000 192.0000 0000000   0.0000  12.0000 12.65579224    17
CTC2_L_00411017-04
1 60091U 22653O   26037.47795139  .00000000  00000+0  00000-0 0  9996
2 60091  65.0000 192.0000 0000000   0.0000 102.0000 12.65579224    18
CTC2_L_00411018-01
1 60092U 24111YV  26037.47795139  .00000000  00000+0  00000-0 0  9998
2 60092  65.0000 204.0000 0000000   0.0000 204.0000 12.65579224    16
CTC2_L_00411018-02
1 60093U 22538ZS  26037.47795139  .00000000  00000+0  00000-0 0  9990
2 60093  65.0000 204.0000 0000000   0.0000 294.0000 12.65579224    16
CTC2_L_00411018-03
1 60094U 26070WO  26037.47795139  .00000000  00000+0  00000-0 0  9996
2 60094  65.0000 204.0000 0000000   0.0000  24.0000 12.65579224    18
CTC2_L_00411018-04
1 60095U 24185O   26037.47795139  .00000000  00000+0  00000-0 0  9992
2 60095  65.0000 204.0000 0000000   0.0000 114.0000 12.65579224    19
CTC2_L_00411019-01
1 60096U 23178MR  26037.47795139  .00000000  00000+0  00000-0 0  9994
2 60096  65.0000 216.0000 0000000   0.0000 216.0000 12.65579224    16
CTC2_L_00411019-02
1 60097U 25960TW  26037.47795139  .00000000  00000+0  00000-0 0  9996
2 60097  65.0000 216.0000 0000000   0.0000 306.0000 12.65579224    17
CTC2_L_00411019-03
1 60098U 25288QJ  26037.47795139  .00000000  00000+0  00000-0 0  9990
2 60098  65.0000 216.0000 0000000   0.0000  36.0000 12.65579224    18
CTC2_L_00411019-04
1 60099U 22909HS  26037.47795139  .00000000  00000+0  00000-0 0  9998
2 60099  65.0000 216.0000 0000000   0.0000 126.0000 12.65579224    19
CTC2_L_00411020-01
1 60100U 26991AG  26037.47795139  .00000000  00000+0  00000-0 0  9996
2 60100  65.0000 228.0000 0000000   0.0000 228.0000 12.65579224    18
CTC2_L_00411020-02
1 60101U 22611ZL  26037.47795139  .00000000  00000+0  00000-0 0  9992
2 60101  65.0000 228.0000 0000000   0.0000 318.0000 12.65579224    19
CTC2_L_00411020-03
1 60102U 24312IP  26037.47795139  .00000000  00000+0  00000-0 0  9993
2 60102  65.0000 228.0000 0000000   0.0000  48.0000 12.65579224    10
CTC2_L_00411020-04
1 60103U 25314UF  26037.47795139  .00000000  00000+0  00000-0 0  9997
2 60103  65.0000 228.0000 0000000   0.0000 138.0000 12.65579224    11
CTC2_L_00411021-01
1 60104U 23900DV  26037.47795139  .00000000  00000+0  00000-0 0  9997
2 60104  65.0000 240.0000 0000000   0.0000 240.0000 12.65579224    10
CTC2_L_00411021-02
1 60105U 24905PG  26037.47795139  .00000000  00000+0  00000-0 0  9994
2 60105  65.0000 240.0000 0000000   0.0000 330.0000 12.65579224    11
CTC2_L_00411021-03
1 60106U 24425BU  26037.47795139  .00000000  00000+0  00000-0 0  9992
2 60106  65.0000 240.0000 0000000   0.0000  60.0000 12.65579224    12
CTC2_L_00411021-04
1 60107U 22698P   26037.47795139  .00000000  00000+0  00000-0 0  9993
2 60107  65.0000 240.0000 0000000   0.0000 150.0000 12.65579224    13
CTC2_L_00411022-01
1 60108U 22861JX  26037.47795139  .00000000  00000+0  00000-0 0  9996
2 60108  65.0000 252.0000 0000000   0.0000 252.0000 12.65579224    10
CTC2_L_00411022-02
1 60109U 24942JN  26037.47795139  .00000000  00000+0  00000-0 0  9999
2 60109  65.0000 252.0000 0000000   0.0000 342.0000 12.65579224    11
CTC2_L_00411022-03
1 60110U 26849UN  26037.47795139  .00000000  00000+0  00000-0 0  9999
2 60110  65.0000 252.0000 0000000   0.0000  72.0000 12.65579224    13
CTC2_L_00411022-04
1 60111U 23998DD  26037.47795139  .00000000  00000+0  00000-0 0  9992
2 60111  65.0000 252.0000 0000000   0.0000 162.0000 12.65579224    14
CTC2_L_00411023-01
1 60112U 22652OR  26037.47795139  .00000000  00000+0  00000-0 0  9999
2 60112  65.0000 264.0000 0000000   0.0000 264.0000 12.65579224    11
CTC2_L_00411023-02
1 60113U 22695VE  26037.47795139  .00000000  00000+0  00000-0 0  9997
2 60113  65.0000 264.0000 0000000   0.0000 354.0000 12.65579224    12
CTC2_L_00411023-03
1 60114U 26987ZM  26037.47795139  .00000000  00000+0  00000-0 0  9996
2 60114  65.0000 264.0000 0000000   0.0000  84.0000 12.65579224    13
CTC2_L_00411023-04
1 60115U 26039EJ  26037.47795139  .00000000  00000+0  00000-0 0  9995
2 60115  65.0000 264.0000 0000000   0.0000 174.0000 12.65579224    14
CTC2_L_00411024-01
1 60116U 22496FH  26037.47795139  .00000000  00000+0  00000-0 0  9999
2 60116  65.0000 276.0000 0000000   0.0000 276.0000 12.65579224    11
CTC2_L_00411024-02
1 60117U 22709CA  26037.47795139  .00000000  00000+0  00000-0 0  9997
2 60117  65.0000 276.0000 0000000   0.0000   6.0000 12.65579224    13
CTC2_L_00411024-03
1 60118U 22704BC  26037.47795139  .00000000  00000+0  00000-0 0  9993
2 60118  65.0000 276.0000 0000000   0.0000  96.0000 12.65579224    13
CTC2_L_00411024-04
1 60119U 23263XA  26037.47795139  .00000000  00000+0  00000-0 0  9995
2 60119  65.0000 276.0000 0000000   0.0000 186.0000 12.65579224    14
CTC2_L_00411025-01
1 60120U 26291TZ  26037.47795139  .00000000  00000+0  00000-0 0  9991
2 60120  65.0000 288.0000 0000000   0.0000 288.0000 12.65579224    12
CTC2_L_00411025-02
1 60121U 24954HJ  26037.47795139  .00000000  00000+0  00000-0 0  9996
2 60121  65.0000 288.0000 0000000   0.0000  18.0000 12.65579224    14
CTC2_L_00411025-03
1 60122U 22531SI  26037.47795139  .00000000  00000+0  00000-0 0  9996
2 60122  65.0000 288.0000 0000000   0.0000 108.0000 12.65579224    15
CTC2_L_00411025-04
1 60123U 24802FU  26037.47795139  .00000000  00000+0  00000-0 0  9990
2 60123  65.0000 288.0000 0000000   0.0000 198.0000 12.65579224    15
CTC2_L_00411026-01
1 60124U 25693AL  26037.47795139  .00000000  00000+0  00000-0 0  9990
2 60124  65.0000 300.0000 0000000   0.0000 300.0000 12.65579224    16
CTC2_L_00411026-02
1 60125U 22883OH  26037.47795139  .00000000  00000+0  00000-0 0  9999
2 60125  65.0000 300.0000 0000000   0.0000  30.0000 12.65579224    17
CTC2_L_00411026-03
1 60126U 26976JS  26037.47795139  .00000000  00000+0  00000-0 0  9997
2 60126  65.0000 300.0000 0000000   0.0000 120.0000 12.65579224    18
CTC2_L_00411026-04
1 60127U 26496AF  26037.47795139  .00000000  00000+0  00000-0 0  9995
2 60127  65.0000 300.0000 0000000   0.0000 210.0000 12.65579224    19
CTC2_L_00411027-01
1 60128U 23586LO  26037.47795139  .00000000  00000+0  00000-0 0  9993
2 60128  65.0000 312.0000 0000000   0.0000 312.0000 12.65579224    16
CTC2_L_00411027-02
1 60129U 22449JP  26037.47795139  .00000000  00000+0  00000-0 0  9991
2 60129  65.0000 312.0000 0000000   0.0000  42.0000 12.65579224    17
CTC2_L_00411027-03
1 60130U 22354UN  26037.47795139  .00000000  00000+0  00000-0 0  9998
2 60130  65.0000 312.0000 0000000   0.0000 132.0000 12.65579224    19
CTC2_L_00411027-04
1 60131U 22826MZ  26037.47795139  .00000000  00000+0  00000-0 0  9993
2 60131  65.0000 312.0000 0000000   0.0000 222.0000 12.65579224    10
CTC2_L_00411028-01
1 60132U 26472LI  26037.47795139  .00000000  00000+0  00000-0 0  9995
2 60132  65.0000 324.0000 0000000   0.0000 324.0000 12.65579224    17
CTC2_L_00411028-02
1 60133U 23249G   26037.47795139  .00000000  00000+0  00000-0 0  9995
2 60133  65.0000 324.0000 0000000   0.0000  54.0000 12.65579224    18
CTC2_L_00411028-03
1 60134U 25909AY  26037.47795139  .00000000  00000+0  00000-0 0  9991
2 60134  65.0000 324.0000 0000000   0.0000 144.0000 12.65579224    19
CTC2_L_00411028-04
1 60135U 24934RX  26037.47795139  .00000000  00000+0  00000-0 0  9999
2 60135  65.0000 324.0000 0000000   0.0000 234.0000 12.65579224    10
CTC2_L_00411029-01
1 60136U 26065DS  26037.47795139  .00000000  00000+0  00000-0 0  9997
2 60136  65.0000 336.0000 0000000   0.0000 336.0000 12.65579224    17
CTC2_L_00411029-02
1 60137U 24618AW  26037.47795139  .00000000  00000+0  00000-0 0  9990
2 60137  65.0000 336.0000 0000000   0.0000  66.0000 12.65579224    18
CTC2_L_00411029-03
1 60138U 24519VX  26037.47795139  .00000000  00000+0  00000-0 0  9991
2 60138  65.0000 336.0000 0000000   0.0000 156.0000 12.65579224    19
CTC2_L_00411029-04
1 60139U 22416NW  26037.47795139  .00000000  00000+0  00000-0 0  9996
2 60139  65.0000 336.0000 0000000   0.0000 246.0000 12.65579224    10
CTC2_L_00411030-01
1 60140U 26372ZY  26037.47795139  .00000000  00000+0  00000-0 0  9993
2 60140  65.0000 348.0000 0000000   0.0000 348.0000 12.65579224    18
CTC2_L_00411030-02
1 60141U 24274JM  26037.47795139  .00000000  00000+0  00000-0 0  9993
2 60141  65.0000 348.0000 0000000   0.0000  78.0000 12.65579224    19
CTC2_L_00411030-03
1 60142U 25926DM  26037.47795139  .00000000  00000+0  00000-0 0  9999
2 60142  65.0000 348.0000 0000000   0.0000 168.0000 12.65579224    10
CTC2_L_00411030-04
1 60143U 23800FG  26037.47795139  .00000000  00000+0  00000-0 0  9999
2 60143  65.0000 348.0000 0000000   0.0000 258.0000 12.65579224    11
